[Satellite]
VERSION=1.1
NAME=STARLINK-5015
NICKNAME=STARLINK-5015
TLE1=1 53931U 22119AX  22296.91667824 -.00036029  00000+0 -25321-3 0  9997
TLE2=2 53931  53.2141 109.6837 0001615  35.0707  80.0657 15.73215454  4993
STATUS=0
